              M50 Cartesian                         J2K Cartesian  
    -----------------------------------       --------------------------------
     X    =      -19784278.56                 X    =        -6025543.16
     Y    =       -5075572.30  feet           Y    =        -1614442.21  meter
     Z    =        8808927.82                 Z    =         2655678.90
     XDOT =      -2967.349483                 XDOT =        -816.929012
     YDOT =     -18234.072344  feet/sec       YDOT =       -5567.370372  meter/sec
     ZDOT =     -17090.150712                 ZDOT =       -5213.258651
 
              TDR Cartesian                         TDR Cartesian  
    -----------------------------------       --------------------------------
     X    =       -8940174.43                 X    =        -2724965.17
     Y    =       18424790.76  feet           Y    =         5615876.22  meter
     Z    =        8681974.91                 Z    =         2646265.95
     XDOT =     -17095.110051                 XDOT =       -5210.589544
     YDOT =       -195.354502  feet/sec       YDOT =         -59.544052  meter/sec
     ZDOT =     -17107.234731                 ZDOT =       -5214.285146
  
  
    The mean element set is posted at the UTC for which position is
    just north of the next ascending node relative to the above
    vector time
 
 
    TWO LINE MEAN ELEMENT SET
  
    ISS
    1 25544U 98067A   16101.70418855  .00016717  00000-0  10270-3 0  9172
    2 25544  51.6438  34.6256 0002762  43.1076 317.0293 15.54426482 34488
  
  
    Satellite: ISS
    Catalog Number: 25544
    Epoch time:      16101.70418855   =   yrday.fracday
    Element set:     917
    Inclination:       51.6438  deg
    RA of node:        34.6256  deg
    Eccentricity:     .0002762     
    Arg of perigee:    43.1076  deg
    Mean anomaly:     317.0293  deg
    Mean motion:   15.54426482  rev/day
    Decay rate:    1.67170E-04  rev/day^2
    Epoch rev:            3448
    Checksum:              304
 
 
    Coasting Arc #19 (Orbit 3462)
    ---------------------------------------
 
    Vector Time (GMT): 2016/102/16:00:00.000
    Vector Time (MET): N/A
    Weight (LBS)     : 941215.1
 
              M50 Cartesian                         M50 Keplerian  
    -----------------------------------       --------------------------------
     X    =        6198716.74                 A    =         6788015.44  meter
     Y    =        2563642.97  meter          E    =           .0012449
     Z    =       -1003706.98                 I    =           51.84615
     XDOT =      -1018.585686                 Wp   =           39.43025
     YDOT =       4762.781939  meter/sec      RA   =           29.21968  deg
     ZDOT =       5923.954947                 TA   =          309.72270
                                              MA   =          309.83236
                                              Ha   =            221.302  n.mi
                                              Hp   =            213.492
 
              M50 Cartesian                         J2K Cartesian  
    -----------------------------------       --------------------------------
     X    =       20336997.16                 X    =         6174464.36
     Y    =        8410902.13  feet           Y    =         2632825.49  meter
     Z    =       -3293001.92                 Z    =         -973653.90
     XDOT =      -3341.816556                 XDOT =       -1100.544915
     YDOT =      15625.924996  feet/sec       YDOT =        4750.933471  meter/sec
     ZDOT =      19435.547725                 ZDOT =        5918.807553
 
              TDR Cartesian                         TDR Cartesian  
    -----------------------------------       --------------------------------
     X    =       11996058.76                 X    =         3656398.71
     Y    =      -18473527.03  feet           Y    =        -5630731.04  meter
     Z    =       -3162904.20                 Z    =         -964053.20
     XDOT =      13381.569123                 XDOT =        4078.702269
     YDOT =       5394.893559  feet/sec       YDOT =        1644.363557  meter/sec
     ZDOT =      19412.241882                 ZDOT =        5916.851326
  
  
    The mean element set is posted at the UTC for which position is
    just north of the next ascending node relative to the above
    vector time
 
 
    TWO LINE MEAN ELEMENT SET
  
    ISS
    1 25544U 98067A   16102.66853438  .00016717  00000-0  10270-3 0  9189
    2 25544  51.6438  29.8163 0002611  43.7580 316.3780 15.54443946 34634
  
  
    Satellite: ISS
    Catalog Number: 25544
    Epoch time:      16102.66853438   =   yrday.fracday
    Element set:     918
    Inclination:       51.6438  deg
    RA of node:        29.8163  deg
    Eccentricity:     .0002611     
    Arg of perigee:    43.7580  deg
    Mean anomaly:     316.3780  deg
    Mean motion:   15.54443946  rev/day
    Decay rate:    1.67170E-04  rev/day^2
    Epoch rev:            3463
    Checksum:              317
 
             </PRE>
           </TD>
        </TR>
    </TABLE>
    
    <table align="center" border="0" width="600" cellpadding="0" cellspacing="0">
      <tr>
        <td align="center" valign="top"><hr size="1" width="600" noshade="noshade" />
        <font face="Arial,helvetica" size="-2">Curator: <a href="/cgi-bin/comment.cgi?jsc-hsfwebma@mail.nasa.gov">Kim 
          Dismukes</a> | Responsible NASA Official: <a href="/cgi-bin/comment.cgi?jsc-hsfwebma@mail.nasa.gov">Amiko Kauderer</a> | Updated: 06/08/2009<br />
        <a href="http://www.nasa.gov/about/highlights/HP_Privacy.html">Privacy Policy and Important Notices</a></font></td>
      </tr>
    </table>
    </body>
    </html>
